ONEWEB-0721             
1 56725U 23068R   26177.44596752  .00000054  00000+0  96009-4 0  9995
2 56725  86.6763  82.5615 0001852  77.7798 282.3542 13.22469893159166
ONEWEB-0015             
1 61594U 24188A   26177.46507979  .00000490  00000+0  13468-2 0  9994
2 61594  87.8880  19.2457 0001992  71.4634 288.6710 13.11417744 85671
ONEWEB-0687             
1 61595U 24188B   26177.49499840  .00000043  00000+0  77413-4 0  9991
2 61595  87.9125   4.0241 0002309  82.9305 277.2089 13.17648627 87120
ONEWEB-0688             
1 61596U 24188C   26177.44774544  .00000051  00000+0  97008-4 0  9995
2 61596  87.9128   4.0332 0002281  56.7588 303.3762 13.17649498 87111
ONEWEB-0689             
1 61597U 24188D   26177.49897369 -.00000214  00000+0 -63945-3 0  9997
2 61597  87.8895  19.1980 0002125  89.6376 270.4995 13.11413871 85674
ONEWEB-0690             
1 61598U 24188E   26177.50915190 -.00000524  00000+0 -15154-2 0  9995
2 61598  87.8887  19.2074 0001198  89.8075 270.3191 13.11416496 85851
ONEWEB-0691             
1 61599U 24188F   26177.50406383 -.00000356  00000+0 -10402-2 0  9999
2 61599  87.8897  19.1178 0002040  77.4784 282.6572 13.11416956 85708
ONEWEB-0692             
1 61600U 24188G   26177.29552849 -.00000197  00000+0 -59303-3 0  9994
2 61600  87.8881  19.2712 0002240 107.1799 252.9574 13.11418025 85664
ONEWEB-0693             
1 61601U 24188H   26177.45956003  .00000031  00000+0  46488-4 0  9999
2 61601  87.9124   4.0505 0001086  83.0056 277.1199 13.17649044 87109
ONEWEB-0695             
1 61602U 24188J   26177.50067789 -.00000302  00000+0 -88931-3 0  9991
2 61602  87.8879  19.2219 0002258  96.5560 263.5825 13.11415736 85686
ONEWEB-0697             
1 61603U 24188K   26177.45660215  .00000150  00000+0  38812-3 0  9991
2 61603  87.8883  19.2213 0002137 107.9608 252.1753 13.11418357 85666
ONEWEB-0698             
1 61604U 24188L   26177.28195644 -.00000456  00000+0 -13214-2 0  9991
2 61604  87.8878  19.2701 0001470 129.1079 231.0180 13.11417382 85667
ONEWEB-0699             
1 61605U 24188M   26177.60721531 -.00000575  00000+0 -16826-2 0  9992
2 61605  87.8820  34.3893 0001989 105.2866 254.8481 13.10376358 84548
ONEWEB-0700             
1 61606U 24188N   26177.30348680 -.00002189  00000+0 -63072-2 0  9998
2 61606  87.8842  34.3602 0002219 100.9675 259.1703 13.10383736 84495
ONEWEB-0701             
1 61607U 24188P   26177.54951566 -.00000606  00000+0 -17724-2 0  9993
2 61607  87.8828  34.4009 0002044 109.8645 250.2702 13.10370718 84535
ONEWEB-0702             
1 61608U 24188Q   26177.48034174  .00000473  00000+0  12976-2 0  9998
2 61608  87.8898  19.1378 0002472 109.2319 250.9077 13.11415231 85702
ONEWEB-0704             
1 61609U 24188R   26177.30857649 -.00000551  00000+0 -16143-2 0  9999
2 61609  87.8828  34.4380 0002547 105.4225 254.7184 13.10375256 84482
ONEWEB-0705             
1 61610U 24188S   26177.54273320 -.00000395  00000+0 -11679-2 0  9990
2 61610  87.8829  34.3973 0002790  90.4247 269.7200 13.10369362 76688
ONEWEB-0706             
1 61611U 24188T   26177.60384177  .00000327  00000+0  90160-3 0  9997
2 61611  87.8825  34.3896 0002296  95.6936 264.4453 13.10371131 84613
ONEWEB-0707             
1 61612U 24188U   26177.53425837 -.00000459  00000+0 -13510-2 0  9990
2 61612  87.8834  34.3980 0002340  96.0899 264.0496 13.10375619 84541
ONEWEB-0708             
1 61613U 24188V   26177.55294349  .00000484  00000+0  13490-2 0  9998
2 61613  87.8812  34.4115 0002360  77.6933 282.4458 13.10371088 84521
