OBJECT_NAME,OBJECT_ID,EPOCH,MEAN_MOTION,ECCENTRICITY,INCLINATION,RA_OF_ASC_NODE,ARG_OF_PERICENTER,MEAN_ANOMALY,EPHEMERIS_TYPE,CLASSIFICATION_TYPE,NORAD_CAT_ID,ELEMENT_SET_NO,REV_AT_EPOCH,BSTAR,MEAN_MOTION_DOT,MEAN_MOTION_DDOT
ONEWEB-0721,2023-068R,2026-06-26T10:42:11.593728,13.22469893,.00018524,86.6763,82.5615,77.7798,282.3542,0,U,56725,999,15916,.96008856E-4,.54E-6,0
ONEWEB-0015,2024-188A,2026-06-26T11:09:42.893856,13.11417744,.00019929,87.8880,19.2457,71.4634,288.6710,0,U,61594,999,8567,.1346779E-2,.49E-5,0
ONEWEB-0687,2024-188B,2026-06-26T11:52:47.861760,13.17648627,.00023098,87.9125,4.0241,82.9305,277.2089,0,U,61595,999,8712,.77412678E-4,.43E-6,0
ONEWEB-0688,2024-188C,2026-06-26T10:44:45.206016,13.17649498,.00022818,87.9128,4.0332,56.7588,303.3762,0,U,61596,999,8711,.97007685E-4,.51E-6,0
ONEWEB-0689,2024-188D,2026-06-26T11:58:31.326816,13.11413871,.00021251,87.8895,19.1980,89.6376,270.4995,0,U,61597,999,8567,-.63945405E-3,-.214E-5,0
ONEWEB-0690,2024-188E,2026-06-26T12:13:10.724160,13.11416496,.00011987,87.8887,19.2074,89.8075,270.3191,0,U,61598,999,8585,-.1515445E-2,-.524E-5,0
ONEWEB-0691,2024-188F,2026-06-26T12:05:51.114912,13.11416956,.000204,87.8897,19.1178,77.4784,282.6572,0,U,61599,999,8570,-.10402413E-2,-.356E-5,0
ONEWEB-0692,2024-188G,2026-06-26T07:05:33.661536,13.11418025,.00022406,87.8881,19.2712,107.1799,252.9574,0,U,61600,999,8566,-.59303178E-3,-.197E-5,0
ONEWEB-0693,2024-188H,2026-06-26T11:01:45.986592,13.17649044,.0001086,87.9124,4.0505,83.0056,277.1199,0,U,61601,999,8710,.46487789E-4,.31E-6,0
ONEWEB-0695,2024-188J,2026-06-26T12:00:58.569696,13.11415736,.00022588,87.8879,19.2219,96.5560,263.5825,0,U,61602,999,8568,-.88931484E-3,-.302E-5,0
ONEWEB-0697,2024-188K,2026-06-26T10:57:30.425760,13.11418357,.00021375,87.8883,19.2213,107.9608,252.1753,0,U,61603,999,8566,.38812416E-3,.15E-5,0
ONEWEB-0698,2024-188L,2026-06-26T06:46:01.036416,13.11417382,.00014704,87.8878,19.2701,129.1079,231.0180,0,U,61604,999,8566,-.13213633E-2,-.456E-5,0
ONEWEB-0699,2024-188M,2026-06-26T14:34:23.402784,13.10376358,.00019896,87.8820,34.3893,105.2866,254.8481,0,U,61605,999,8454,-.16826238E-2,-.575E-5,0
ONEWEB-0700,2024-188N,2026-06-26T07:17:01.259520,13.10383736,.00022198,87.8842,34.3602,100.9675,259.1703,0,U,61606,999,8449,-.63072277E-2,-.2189E-4,0
ONEWEB-0701,2024-188P,2026-06-26T13:11:18.153024,13.10370718,.0002044,87.8828,34.4009,109.8645,250.2702,0,U,61607,999,8453,-.17723598E-2,-.606E-5,0
ONEWEB-0702,2024-188Q,2026-06-26T11:31:41.526336,13.11415231,.00024728,87.8898,19.1378,109.2319,250.9077,0,U,61608,999,8570,.129757E-2,.473E-5,0
ONEWEB-0704,2024-188R,2026-06-26T07:24:21.008736,13.10375256,.00025479,87.8828,34.4380,105.4225,254.7184,0,U,61609,999,8448,-.16143005E-2,-.551E-5,0
ONEWEB-0705,2024-188S,2026-06-26T13:01:32.148480,13.10369362,.00027903,87.8829,34.3973,90.4247,269.7200,0,U,61610,999,7668,-.11679274E-2,-.395E-5,0
ONEWEB-0706,2024-188T,2026-06-26T14:29:31.928928,13.10371131,.0002296,87.8825,34.3896,95.6936,264.4453,0,U,61611,999,8461,.90160013E-3,.327E-5,0
ONEWEB-0707,2024-188U,2026-06-26T12:49:19.923168,13.10375619,.00023402,87.8834,34.3980,96.0899,264.0496,0,U,61612,999,8454,-.1351048E-2,-.459E-5,0
ONEWEB-0708,2024-188V,2026-06-26T13:16:14.317536,13.10371088,.000236,87.8812,34.4115,77.6933,282.4458,0,U,61613,999,8452,.13489838E-2,.484E-5,0
